satname,norad_id,inclination_deg,eccentricity,mean_motion_rev_per_day,perigee_km,apogee_km,l1,l2
STARLINK-1496,45780,53.0557,0.0001091,15.36709892,455.10076807736186,456.59194324556665,1 45780U 20038BC  26003.64531953  .00119523  00000+0  32440-2 0  9999,2 45780  53.0557 126.2965 0001091  71.2212 288.8908 15.36709892306976
STARLINK-1497,45781,53.0313,0.0005754,15.77767508,332.90367359851825,340.631185616111,1 45781U 20038BD  26003.66668981  .00257844  00000+0  14620-2 0  9993,2 45781  53.0313  47.1817 0005754  26.6442 145.0917 15.77767508  5976
STARLINK-1510,45784,53.0139,0.0005194,16.19169158,218.38064266490983,225.2366662107397,1 45784U 20038BG  26003.55942880  .01711142  11806-4  91777-3 0  9994,2 45784  53.0139  13.0878 0005194  46.6881 313.4588 16.19169158308561
STARLINK-1513,45786,53.0551,0.000132,15.06398707,546.3013742671401,548.1296673326315,1 45786U 20038BJ  26003.62876481  .00000409  00000+0  46329-4 0  9996,2 45786  53.0551 128.6884 0001320  87.4606 272.6534 15.06398707306953
STARLINK-1522,46027,53.0545,0.0001213,15.06404922,546.3564298080046,548.0365157084952,1 46027U 20055A   26003.54307385  .00010359  00000+0  71320-3 0  9990,2 46027  53.0545  59.0724 0001213  89.5855 270.5273 15.06404922299062
STARLINK-1523,46028,53.0552,0.00015,15.06412254,546.1352047975506,548.2127980979849,1 46028U 20055B   26003.55780913  .00002228  00000+0  16836-3 0  9991,2 46028  53.0552  59.0086 0001500  98.1091 262.0069 15.06412254299087
STARLINK-1526,46029,53.055,0.0001355,15.06423015,546.2026460042343,548.0793963479728,1 46029U 20055C   26003.55043050  .00016232  00000+0  11054-2 0  9992,2 46029  53.0550  59.0375 0001355  92.5983 267.5161 15.06423015299072
STARLINK-1555,46032,53.0548,0.0001132,15.06428032,546.3417054964475,547.9095849593268,1 46032U 20055F   26003.46934449  .00016745  00000+0  11395-2 0  9994,2 46032  53.0548  59.4028 0001132  95.9860 264.1259 15.06428032299060
STARLINK-1556,46033,53.0544,0.0001362,15.06430706,546.1742304132067,548.0606697254052,1 46033U 20055G   26003.58360778  .00013586  00000+0  92842-3 0  9993,2 46033  53.0544  58.8897 0001362  93.9700 266.1444 15.06430706299058
STARLINK-1557,46034,53.0548,0.0001252,15.06410491,546.3123551069912,548.0464543347334,1 46034U 20055H   26003.58729297  .00001942  00000+0  14918-3 0  9990,2 46034  53.0548  58.8727 0001252  86.3046 273.8087 15.06410491299059
STARLINK-1558,46035,53.0544,0.0001589,15.06392283,546.1347678887005,548.3356511768898,1 46035U 20055J   26003.52832924  .00013500  00000+0  92366-3 0  9993,2 46035  53.0544  59.1419 0001589  94.0089 266.1082 15.06392283299074
STARLINK-1560,46036,53.0544,0.0001391,15.06427884,546.1627947154957,548.0894029095853,1 46036U 20055K   26003.57992180  .00015358  00000+0  10469-2 0  9996,2 46036  53.0544  58.9094 0001391  88.9155 271.1994 15.06427884299083
STARLINK-1567,46038,53.0548,0.0001276,15.06406914,546.3066958330182,548.0740393772303,1 46038U 20055M   26003.52464257  .00014175  00000+0  96839-3 0  9994,2 46038  53.0548  59.1563 0001276 102.9668 257.1463 15.06406914299065
STARLINK-1569,46039,53.0543,0.0001246,15.0640785,546.3246034907961,548.050394355927,1 46039U 20055N   26003.46566848  .00008120  00000+0  56324-3 0  9995,2 46039  53.0543  59.4202 0001246  88.8167 271.2965 15.06407850299050
STARLINK-1582,46043,53.0554,0.0001479,15.06415463,546.1399144332254,548.1884185182689,1 46043U 20055S   26003.47303262  .00011906  00000+0  81651-3 0  9997,2 46043  53.0554  59.3884 0001479  81.6020 278.5137 15.06415463299059
STARLINK-1591,46045,53.0555,0.0001376,15.06414912,546.212933510139,548.1187768558857,1 46045U 20055U   26003.56518736  .00017536  00000+0  11928-2 0  9997,2 46045  53.0555  58.9734 0001376  93.5288 266.5858 15.06414912299050
STARLINK-1524,46047,53.0544,0.0001291,15.06400926,546.3146577506623,548.1027820155368,1 46047U 20055W   26003.51819765  .00011610  00000+0  79703-3 0  9993,2 46047  53.0544  49.1851 0001291  94.9424 265.1712 15.06400926299206
STARLINK-1527,46048,53.055,0.0001257,15.06412062,546.3040782253483,548.045101559047,1 46048U 20055X   26003.51450332  .00015454  00000+0  10538-2 0  9995,2 46048  53.0550  49.2006 0001257  93.8566 266.2567 15.06412062299185
STARLINK-1540,46051,53.0543,0.0001347,15.06404761,546.2641237121707,548.1298086826655,1 46051U 20055AA  26003.48133073  .00003983  00000+0  28607-3 0  9996,2 46051  53.0543  49.3500 0001347 100.1383 259.9758 15.06404761299212
STARLINK-1541,46052,53.0569,0.0001175,15.06411435,546.3627871943099,547.9902358695199,1 46052U 20055AB  26003.40023758  .00001443  00000+0  11568-3 0  9994,2 46052  53.0569  49.7141 0001175  92.1961 267.9163 15.06411435299166
STARLINK-1543,46053,53.0554,0.0001295,15.06408001,546.2902066714896,548.0838655968473,1 46053U 20055AC  26003.47027215 -.00000110  00000+0  11506-4 0  9998,2 46053  53.0554  49.3998 0001295  78.9779 281.1356 15.06408001299201
STARLINK-1548,46054,53.0553,0.0001684,15.06424768,545.9694327115694,548.3018645396251,1 46054U 20055AD  26003.47764020  .00010988  00000+0  75488-3 0  9992,2 46054  53.0553  49.3641 0001684 101.9595 258.1583 15.06424768299205
STARLINK-1554,46055,53.055,0.0001767,15.06401328,545.983779441538,548.431196183531,1 46055U 20055AE  26003.39655369  .00005710  00000+0  40192-3 0  9990,2 46055  53.0550  49.7308 0001767  88.2581 271.8611 15.06401328299190
STARLINK-1564,46058,53.0547,0.0001569,15.06423293,546.053593180126,548.22674515581,1 46058U 20055AH  26003.60671558  .00011634  00000+0  79812-3 0  9998,2 46058  53.0547  49.2503 0001569  88.5307 271.5862 15.06423293299213
STARLINK-1570,46059,53.0549,0.000115,15.06391611,546.44085109341,548.0336871753107,1 46059U 20055AJ  26003.50344668 -.00002172  00000+0 -12697-3 0  9994,2 46059  53.0549  49.2520 0001150  87.4928 272.6193 15.06391611299169
STARLINK-1572,46060,53.0547,0.0001417,15.0641529,546.1833814363899,548.1460119372305,1 46060U 20055AK  26003.49975514  .00011362  00000+0  78008-3 0  9991,2 46060  53.0547  49.2652 0001417  86.8968 273.2183 15.06415290299175
STARLINK-1573,46061,53.0546,0.0001224,15.06422118,546.2961159169909,547.9914246495564,1 46061U 20055AL  26003.49607191  .00011393  00000+0  78204-3 0  9997,2 46061  53.0546  49.3207 0001224  91.0380 269.0749 15.06422118299206
STARLINK-1577,46063,53.0548,0.0001538,15.06405022,546.1310500333648,548.2612825153119,1 46063U 20055AN  26003.52188007  .00007788  00000+0  54109-3 0  9994,2 46063  53.0548  49.1678 0001538  79.9327 280.1835 15.06405022299209
